GLOBALSTAR M079 [+]     
1 37188U 10054A   23185.43052316 -.00000114  00000+0 -56658-4 0  9991
2 37188  52.0018 152.5761 0000150  58.4168  85.4466 12.62266153586994
GLOBALSTAR M074 [+]     
1 37189U 10054B   23185.82766839 -.00000120  00000+0 -93224-4 0  9994
2 37189  51.9993 150.8010 0000294  14.8474  14.1356 12.62268155587046
GLOBALSTAR M076 [+]     
1 37190U 10054C   23185.40285409 -.00000116  00000+0 -68078-4 0  9993
2 37190  52.0014 152.1997 0000257 245.0498 253.0451 12.62275902586997
GLOBALSTAR M077 [+]     
1 37191U 10054D   23185.04550532 -.00000108  00000+0 -23841-4 0  9996
2 37191  52.0066 109.9387 0000509  36.6968 336.1165 12.62269058587692
GLOBALSTAR M075 [+]     
1 37192U 10054E   23185.41788491 -.00000108  00000+0 -21632-4 0  9991
2 37192  51.9917 194.8076 0000300 158.8139 348.2722 12.62269517586232
GLOBALSTAR M073 [+]     
1 37193U 10054F   23186.02197594 -.00000102  00000+0  11194-4 0  9993
2 37193  52.0058 106.2437 0000584  40.2844 332.5343 12.62277644587821
GLOBALSTAR M083 [+]     
1 37739U 11033A   23186.38643378 -.00000085  00000+0  10503-3 0  9994
2 37739  51.9870  54.8396 0001051  74.2621  96.1622 12.62267037557194
GLOBALSTAR M088 [+]     
1 37740U 11033B   23185.46087833 -.00000100  00000+0  19276-4 0  9997
2 37740  51.9746 323.7507 0001106 115.0276 287.7466 12.62263645552551
GLOBALSTAR M091 [+]     
1 37741U 11033C   23185.48256446 -.00000073  00000+0  17205-3 0  9996
2 37741  52.0002 285.9640 0000979 127.5727 313.3436 12.62264684553314
GLOBALSTAR M085 [+]     
1 37742U 11033D   23185.56320833 -.00000076  00000+0  15335-3 0  9993
2 37742  51.9849 237.3882 0000556 136.6376  11.4838 12.62265526554064
GLOBALSTAR M081 [+]     
1 37743U 11033E   23186.43121838 -.00000078  00000+0  14656-3 0  9992
2 37743  51.9940 237.0939 0000660 157.5261 215.7225 12.62269322554212
GLOBALSTAR M089 [+]     
1 37744U 11033F   23186.33205156 -.00000104  00000+0 -12938-5 0  9992
2 37744  51.9901 191.7554 0000220 247.8945 215.0757 12.62265313554919
GLOBALSTAR M084 [+]     
1 38040U 11080A   23186.36044485 -.00000084  00000+0  11115-3 0  9993
2 38040  52.0019  58.5788 0000582  56.4461 115.4651 12.62263714532924
GLOBALSTAR M080 [+]     
1 38041U 11080B   23186.41288963 -.00000082  00000+0  12314-3 0  9991
2 38041  52.0071  59.7749 0000437  65.4721 105.1649 12.62267951532910
GLOBALSTAR M082 [+]     
1 38042U 11080C   23186.03023609 -.00000095  00000+0  49758-4 0  9991
2 38042  52.0092  16.3125 0001504  79.2853  90.7981 12.62268898533602
GLOBALSTAR M092 [+]     
1 38043U 11080D   23186.23880262 -.00000101  00000+0  16465-4 0  9997
2 38043  52.0082 106.0150 0000584  12.0512 146.1672 12.62270204532124
GLOBALSTAR M090 [+]     
1 38044U 11080E   23185.72009551 -.00000100  00000+0  19932-4 0  9996
2 38044  51.9903  11.9843 0001105  92.5368 347.9565 12.62265831533550
GLOBALSTAR M086 [+]     
1 38045U 11080F   23185.83048125 -.00000090  00000+0  74853-4 0  9990
2 38045  51.9914  12.1432 0001349 140.2101 322.4090 12.62268265533573
GLOBALSTAR M097 [+]     
1 39072U 13005A   23185.67632133 -.00000079  00000+0  13735-3 0  9998
2 39072  52.0052 286.4377 0000956 125.0898 235.0058 12.62269581480789
GLOBALSTAR M093 [+]     
1 39073U 13005B   23186.28303814 -.00000073  00000+0  17411-3 0  9997
2 39073  51.9812 279.0331 0001136 132.1890 227.9073 12.62267539480858
GLOBALSTAR M094 [+]     
1 39074U 13005C   23186.28308229 -.00000114  00000+0 -59315-4 0  9990
2 39074  51.9929 192.7013 0000228 151.5668 208.5212 12.62266362482366
GLOBALSTAR M096 [+]     
1 39075U 13005D   23185.50452213 -.00000077  00000+0  15204-3 0  9993
2 39075  52.0057 243.0305 0000757 140.3726 219.7196 12.62269819481514
GLOBALSTAR M078 [+]     
1 39076U 13005E   23185.71529706 -.00000215  00000+0 -61864-3 0  9997
2 39076  51.9891 327.8658 0001428  69.8369 290.2651 12.62258283480023
GLOBALSTAR M095 [+]     
1 39077U 13005F   23186.13812066 -.00000093  00000+0  61376-4 0  9991
2 39077  51.9814 324.1323 0001428  96.4249 263.6780 12.62267117480080
GLOBALSTAR M087 [+]     
1 52888U 22064A   23185.74740361 -.00000102  00000+0  49639-4 0  9994
2 52888  51.9772 343.3472 0009374 195.1456 164.9165 13.37548365 50893
